CCSDS_OMM_VERS = 2.0
CREATION_DATE  = 
ORIGINATOR     = 

OBJECT_NAME    = 2026-027B
OBJECT_ID      = 2026-027B
CENTER_NAME    = EARTH
REF_FRAME      = TEME
TIME_SYSTEM    = UTC
MEAN_ELEMENT_THEORY = SGP/SGP4

EPOCH          = 2026-03-04T19:45:09.843840
MEAN_MOTION    = 15.17698943
ECCENTRICITY   = .0009968
INCLINATION    = 97.4897
RA_OF_ASC_NODE = 192.8899
ARG_OF_PERICENTER = 214.1004
MEAN_ANOMALY   = 145.9590

EPHEMERIS_TYPE = 0
CLASSIFICATION_TYPE = U
NORAD_CAT_ID   = 67747
ELEMENT_SET_NO = 999
REV_AT_EPOCH   = 312
BSTAR          = .61865E-3
MEAN_MOTION_DOT = .12429E-3
MEAN_MOTION_DDOT = 0

CCSDS_OMM_VERS = 2.0
CREATION_DATE  = 
ORIGINATOR     = 

OBJECT_NAME    = 2026-027C
OBJECT_ID      = 2026-027C
CENTER_NAME    = EARTH
REF_FRAME      = TEME
TIME_SYSTEM    = UTC
MEAN_ELEMENT_THEORY = SGP/SGP4

EPOCH          = 2026-03-04T19:43:13.000800
MEAN_MOTION    = 15.17737296
ECCENTRICITY   = .0010315
INCLINATION    = 97.4909
RA_OF_ASC_NODE = 192.8948
ARG_OF_PERICENTER = 216.6435
MEAN_ANOMALY   = 143.4094

EPHEMERIS_TYPE = 0
CLASSIFICATION_TYPE = U
NORAD_CAT_ID   = 67748
ELEMENT_SET_NO = 999
REV_AT_EPOCH   = 312
BSTAR          = .43627E-3
MEAN_MOTION_DOT = .8751E-4
MEAN_MOTION_DDOT = 0

CCSDS_OMM_VERS = 2.0
CREATION_DATE  = 
ORIGINATOR     = 

OBJECT_NAME    = 2026-027D
OBJECT_ID      = 2026-027D
CENTER_NAME    = EARTH
REF_FRAME      = TEME
TIME_SYSTEM    = UTC
MEAN_ELEMENT_THEORY = SGP/SGP4

EPOCH          = 2026-03-04T19:39:08.680608
MEAN_MOTION    = 15.18042015
ECCENTRICITY   = .000999
INCLINATION    = 97.4904
RA_OF_ASC_NODE = 192.8975
ARG_OF_PERICENTER = 221.7642
MEAN_ANOMALY   = 138.2830

EPHEMERIS_TYPE = 0
CLASSIFICATION_TYPE = U
NORAD_CAT_ID   = 67749
ELEMENT_SET_NO = 999
REV_AT_EPOCH   = 307
BSTAR          = .70977E-3
MEAN_MOTION_DOT = .14416E-3
MEAN_MOTION_DDOT = 0

CCSDS_OMM_VERS = 2.0
CREATION_DATE  = 
ORIGINATOR     = 

OBJECT_NAME    = 2026-027E
OBJECT_ID      = 2026-027E
CENTER_NAME    = EARTH
REF_FRAME      = TEME
TIME_SYSTEM    = UTC
MEAN_ELEMENT_THEORY = SGP/SGP4

EPOCH          = 2026-03-04T19:39:14.287104
MEAN_MOTION    = 15.18006141
ECCENTRICITY   = .0009192
INCLINATION    = 97.4915
RA_OF_ASC_NODE = 192.9005
ARG_OF_PERICENTER = 222.6755
MEAN_ANOMALY   = 137.3765

EPHEMERIS_TYPE = 0
CLASSIFICATION_TYPE = U
NORAD_CAT_ID   = 67750
ELEMENT_SET_NO = 999
REV_AT_EPOCH   = 312
BSTAR          = .62101E-3
MEAN_MOTION_DOT = .12586E-3
MEAN_MOTION_DDOT = 0

CCSDS_OMM_VERS = 2.0
CREATION_DATE  = 
ORIGINATOR     = 

OBJECT_NAME    = 2026-027F
OBJECT_ID      = 2026-027F
CENTER_NAME    = EARTH
REF_FRAME      = TEME
TIME_SYSTEM    = UTC
MEAN_ELEMENT_THEORY = SGP/SGP4

EPOCH          = 2026-03-04T19:36:28.239264
MEAN_MOTION    = 15.18282502
ECCENTRICITY   = .0010378
INCLINATION    = 97.4916
RA_OF_ASC_NODE = 192.9034
ARG_OF_PERICENTER = 223.0902
MEAN_ANOMALY   = 136.9520

EPHEMERIS_TYPE = 0
CLASSIFICATION_TYPE = U
NORAD_CAT_ID   = 67751
ELEMENT_SET_NO = 999
REV_AT_EPOCH   = 312
BSTAR          = .94959E-3
MEAN_MOTION_DOT = .19458E-3
MEAN_MOTION_DDOT = 0

CCSDS_OMM_VERS = 2.0
CREATION_DATE  = 
ORIGINATOR     = 

OBJECT_NAME    = 2026-027G
OBJECT_ID      = 2026-027G
CENTER_NAME    = EARTH
REF_FRAME      = TEME
TIME_SYSTEM    = UTC
MEAN_ELEMENT_THEORY = SGP/SGP4

EPOCH          = 2026-03-04T05:23:16.160640
MEAN_MOTION    = 15.18028016
ECCENTRICITY   = .00094052
INCLINATION    = 97.4907
RA_OF_ASC_NODE = 192.3130
ARG_OF_PERICENTER = 225.8320
MEAN_ANOMALY   = 134.2142

EPHEMERIS_TYPE = 0
CLASSIFICATION_TYPE = U
NORAD_CAT_ID   = 67752
ELEMENT_SET_NO = 999
REV_AT_EPOCH   = 303
BSTAR          = .80953139E-3
MEAN_MOTION_DOT = .16447E-3
MEAN_MOTION_DDOT = 0

CCSDS_OMM_VERS = 2.0
CREATION_DATE  = 
ORIGINATOR     = 

OBJECT_NAME    = JIELONG-3 R/B
OBJECT_ID      = 2026-027H
CENTER_NAME    = EARTH
REF_FRAME      = TEME
TIME_SYSTEM    = UTC
MEAN_ELEMENT_THEORY = SGP/SGP4

EPOCH          = 2026-03-04T19:14:36.216384
MEAN_MOTION    = 15.70952812
ECCENTRICITY   = .022959
INCLINATION    = 97.5131
RA_OF_ASC_NODE = 194.4364
ARG_OF_PERICENTER = 262.8009
MEAN_ANOMALY   = 94.7103

EPHEMERIS_TYPE = 0
CLASSIFICATION_TYPE = U
NORAD_CAT_ID   = 67753
ELEMENT_SET_NO = 999
REV_AT_EPOCH   = 321
BSTAR          = .68797E-3
MEAN_MOTION_DOT = .461469E-2
MEAN_MOTION_DDOT = .23774E-5

CCSDS_OMM_VERS = 2.0
CREATION_DATE  = 
ORIGINATOR     = 

OBJECT_NAME    = JIELONG-3 DEB
OBJECT_ID      = 2026-027J
CENTER_NAME    = EARTH
REF_FRAME      = TEME
TIME_SYSTEM    = UTC
MEAN_ELEMENT_THEORY = SGP/SGP4

EPOCH          = 2026-03-04T19:11:52.658592
MEAN_MOTION    = 15.96288259
ECCENTRICITY   = .015134
INCLINATION    = 97.5051
RA_OF_ASC_NODE = 194.7432
ARG_OF_PERICENTER = 262.3033
MEAN_ANOMALY   = 96.1035

EPHEMERIS_TYPE = 0
CLASSIFICATION_TYPE = U
NORAD_CAT_ID   = 67754
ELEMENT_SET_NO = 999
REV_AT_EPOCH   = 317
BSTAR          = .1352E-2
MEAN_MOTION_DOT = .1947738E-1
MEAN_MOTION_DDOT = .24469E-5

CCSDS_OMM_VERS = 2.0
CREATION_DATE  = 
ORIGINATOR     = 

OBJECT_NAME    = 2026-028A
OBJECT_ID      = 2026-028A
CENTER_NAME    = EARTH
REF_FRAME      = TEME
TIME_SYSTEM    = UTC
MEAN_ELEMENT_THEORY = SGP/SGP4

EPOCH          = 2026-03-04T07:43:55.532928
MEAN_MOTION    = 0.99524032
ECCENTRICITY   = .0042
INCLINATION    = 0.4831
RA_OF_ASC_NODE = 289.6425
ARG_OF_PERICENTER = 229.2377
MEAN_ANOMALY   = 201.2600

EPHEMERIS_TYPE = 0
CLASSIFICATION_TYPE = U
NORAD_CAT_ID   = 67756
ELEMENT_SET_NO = 999
REV_AT_EPOCH   = 20
BSTAR          = 0
MEAN_MOTION_DOT = -.2E-6
MEAN_MOTION_DDOT = 0

CCSDS_OMM_VERS = 2.0
CREATION_DATE  = 
ORIGINATOR     = 

OBJECT_NAME    = JAM-E JAM 1
OBJECT_ID      = 2026-028B
CENTER_NAME    = EARTH
REF_FRAME      = TEME
TIME_SYSTEM    = UTC
MEAN_ELEMENT_THEORY = SGP/SGP4

EPOCH          = 2026-03-03T10:56:01.395744
MEAN_MOTION    = 1.00266787
ECCENTRICITY   = .00024495
INCLINATION    = 0.5072
RA_OF_ASC_NODE = 285.5539
ARG_OF_PERICENTER = 116.0725
MEAN_ANOMALY   = 318.3556

EPHEMERIS_TYPE = 0
CLASSIFICATION_TYPE = U
NORAD_CAT_ID   = 67757
ELEMENT_SET_NO = 999
REV_AT_EPOCH   = 6
BSTAR          = 0
MEAN_MOTION_DOT = .14E-5
MEAN_MOTION_DDOT = 0

CCSDS_OMM_VERS = 2.0
CREATION_DATE  = 
ORIGINATOR     = 

OBJECT_NAME    = KUIPER-00159
OBJECT_ID      = 2026-030A
CENTER_NAME    = EARTH
REF_FRAME      = TEME
TIME_SYSTEM    = UTC
MEAN_ELEMENT_THEORY = SGP/SGP4

EPOCH          = 2026-03-04T18:02:03.107904
MEAN_MOTION    = 15.35508981
ECCENTRICITY   = .000454
INCLINATION    = 51.8844
RA_OF_ASC_NODE = 242.9770
ARG_OF_PERICENTER = 32.0288
MEAN_ANOMALY   = 328.0973

EPHEMERIS_TYPE = 0
CLASSIFICATION_TYPE = U
NORAD_CAT_ID   = 67764
ELEMENT_SET_NO = 999
REV_AT_EPOCH   = 433
BSTAR          = .86433E-3
MEAN_MOTION_DOT = .30028E-3
MEAN_MOTION_DDOT = 0

CCSDS_OMM_VERS = 2.0
CREATION_DATE  = 
ORIGINATOR     = 

OBJECT_NAME    = KUIPER-00160
OBJECT_ID      = 2026-030B
CENTER_NAME    = EARTH
REF_FRAME      = TEME
TIME_SYSTEM    = UTC
MEAN_ELEMENT_THEORY = SGP/SGP4

EPOCH          = 2026-03-04T18:03:40.882464
MEAN_MOTION    = 15.35355822
ECCENTRICITY   = .0004832
INCLINATION    = 51.8813
RA_OF_ASC_NODE = 242.9769
ARG_OF_PERICENTER = 42.9176
MEAN_ANOMALY   = 317.2186

EPHEMERIS_TYPE = 0
CLASSIFICATION_TYPE = U
NORAD_CAT_ID   = 67765
ELEMENT_SET_NO = 999
REV_AT_EPOCH   = 433
BSTAR          = .10612E-2
MEAN_MOTION_DOT = .36809E-3
MEAN_MOTION_DDOT = 0

