2026-027B               
1 67747U 26027B   26063.82303060  .00012429  00000+0  61865-3 0  9993
2 67747  97.4897 192.8899 0009968 214.1004 145.9590 15.17698943  3129
2026-027C               
1 67748U 26027C   26063.82167825  .00008751  00000+0  43627-3 0  9990
2 67748  97.4909 192.8948 0010315 216.6435 143.4094 15.17737296  3129
2026-027D               
1 67749U 26027D   26063.81885047  .00014416  00000+0  70977-3 0  9996
2 67749  97.4904 192.8975 0009990 221.7642 138.2830 15.18042015  3072
2026-027E               
1 67750U 26027E   26063.81891536  .00012586  00000+0  62101-3 0  9994
2 67750  97.4915 192.9005 0009192 222.6755 137.3765 15.18006141  3123
2026-027F               
1 67751U 26027F   26063.81699351  .00019458  00000+0  94959-3 0  9997
2 67751  97.4916 192.9034 0010378 223.0902 136.9520 15.18282502  3125
2026-027G               
1 67752U 26027G   26063.22449260  .00016447  00000+0  80953-3 0  9999
2 67752  97.4907 192.3130 0009405 225.8320 134.2142 15.18028016  3039
JIELONG-3 R/B           
1 67753U 26027H   26063.80180806  .00461469  23774-5  68797-3 0  9991
2 67753  97.5131 194.4364 0229590 262.8009  94.7103 15.70952812  3211
JIELONG-3 DEB           
1 67754U 26027J   26063.79991503  .01947738  24469-5  13520-2 0  9998
2 67754  97.5051 194.7432 0151340 262.3033  96.1035 15.96288259  3171
2026-028A               
1 67756U 26028A   26063.32217052 -.00000020  00000+0  00000+0 0  9999
2 67756   0.4831 289.6425 0042000 229.2377 201.2600  0.99524032   200
JAM-E JAM 1             
1 67757U 26028B   26062.45557171  .00000140  00000+0  00000+0 0  9994
2 67757   0.5072 285.5539 0002449 116.0725 318.3556  1.00266787    60
KUIPER-00159            
1 67764U 26030A   26063.75142486  .00030028  00000+0  86433-3 0  9994
2 67764  51.8844 242.9770 0004540  32.0288 328.0973 15.35508981  4336
KUIPER-00160            
1 67765U 26030B   26063.75255651  .00036809  00000+0  10612-2 0  9992
2 67765  51.8813 242.9769 0004832  42.9176 317.2186 15.35355822  4331
